{"type": "FeatureCollection", "features": [ {"type": "Feature", "properties": {"norad_id": 40664, "name": "SKY MEXICO-1", "group": "intelsat", "lat": 0.035192312354198445, "lon": 99.00124949457899, "alt_km": 35797.25719202278, "timestamp": "2025-12-26T05:31:12.167747+00:00", "meta": {"OBJECT_NAME": "SKY MEXICO-1", "OBJECT_ID": "2015-026B", "EPOCH": "2025-12-25T05:41:31.709184", "MEAN_MOTION": 1.00269983, "ECCENTRICITY": 0.0002553, "INCLINATION": 0.0152, "RA_OF_ASC_NODE": 8.8058, "ARG_OF_PERICENTER": 281.657, "MEAN_ANOMALY": 170.1492, "EPHEMERIS_TYPE": 0, "CLASSIFICATION_TYPE": "U", "NORAD_CAT_ID": 40664, "ELEMENT_SET_NO": 999, "REV_AT_EPOCH": 3871, "BSTAR": 0, "MEAN_MOTION_DOT": -2.13e-06, "MEAN_MOTION_DDOT": 0}, "tle": {"line1": "1 40664U 15026B   25359.23717256 -.00000213  00000+0  00000+0 0  9996", "line2": "2 40664   0.0152   8.8058 0002553 281.6570 170.1492  1.00269983 38714"}}, "geometry": {"type": "Point", "coordinates": [99.00124949457899, 0.035192312354198445]}}, {"type": "Feature", "properties": {"norad_id": 40874, "name": "INTELSAT 34 (IS-34)", "group": "intelsat", "lat": 0.02338061845753656, "lon": 122.26070677727968, "alt_km": 35785.15361766624, "timestamp": "2025-12-26T05:31:12.167758+00:00", "meta": {"OBJECT_NAME": "INTELSAT 34 (IS-34)", "OBJECT_ID": "2015-039A", "EPOCH": "2025-12-25T21:21:42.765120", "MEAN_MOTION": 1.00269339, "ECCENTRICITY": 5.354e-05, "INCLINATION": 0.0132, "RA_OF_ASC_NODE": 342.0375, "ARG_OF_PERICENTER": 183.1009, "MEAN_ANOMALY": 194.429, "EPHEMERIS_TYPE": 0, "CLASSIFICATION_TYPE": "U", "NORAD_CAT_ID": 40874, "ELEMENT_SET_NO": 999, "REV_AT_EPOCH": 3788, "BSTAR": 0, "MEAN_MOTION_DOT": -2.64e-06, "MEAN_MOTION_DDOT": 0}, "tle": {"line1": "1 40874U 15039A   25359.89007830 -.00000264  00000+0  00000+0 0  9991", "line2": "2 40874   0.0132 342.0375 0000535 183.1009 194.4290  1.00269339 37888"}}, "geometry": {"type": "Point", "coordinates": [122.26070677727968, 0.02338061845753656]}}, {"type": "Feature", "properties": {"norad_id": 41581, "name": "INTELSAT 31 (IS-31)", "group": "intelsat", "lat": 0.014049937411396587, "lon": 82.67496725164875, "alt_km": 35791.16484425429, "timestamp": "2025-12-26T05:31:12.167770+00:00", "meta": {"OBJECT_NAME": "INTELSAT 31 (IS-31)", "OBJECT_ID": "2016-035A", "EPOCH": "2025-12-23T19:31:44.703840", "MEAN_MOTION": 1.00269658, "ECCENTRICITY": 0.0001926, "INCLINATION": 0.0283, "RA_OF_ASC_NODE": 262.055, "ARG_OF_PERICENTER": 303.365, "MEAN_ANOMALY": 85.0534, "EPHEMERIS_TYPE": 0, "CLASSIFICATION_TYPE": "U", "NORAD_CAT_ID": 41581, "ELEMENT_SET_NO": 999, "REV_AT_EPOCH": 3492, "BSTAR": 0, "MEAN_MOTION_DOT": -1.29e-06, "MEAN_MOTION_DDOT": 0}, "tle": {"line1": "1 41581U 16035A   25357.81371185 -.00000129  00000+0  00000+0 0  9991", "line2": "2 41581   0.0283 262.0550 0001926 303.3650  85.0534  1.00269658 34922"}}, "geometry": {"type": "Point", "coordinates": [82.67496725164875, 0.014049937411396587]}}, {"type": "Feature", "properties": {"norad_id": 41747, "name": "INTELSAT 36 (IS-36)", "group": "intelsat", "lat": -0.025556284623229956, "lon": -113.75132249608106, "alt_km": 35785.22259909272, "timestamp": "2025-12-26T05:31:12.167782+00:00", "meta": {"OBJECT_NAME": "INTELSAT 36 (IS-36)", "OBJECT_ID": "2016-053A", "EPOCH": "2025-12-24T23:41:40.191072", "MEAN_MOTION": 1.00271078, "ECCENTRICITY": 0.00011962, "INCLINATION": 0.0114, "RA_OF_ASC_NODE": 13.9545, "ARG_OF_PERICENTER": 310.844, "MEAN_ANOMALY": 192.8649, "EPHEMERIS_TYPE": 0, "CLASSIFICATION_TYPE": "U", "NORAD_CAT_ID": 41747, "ELEMENT_SET_NO": 999, "REV_AT_EPOCH": 3420, "BSTAR": 0, "MEAN_MOTION_DOT": -3e-08, "MEAN_MOTION_DDOT": 0}, "tle": {"line1": "1 41747U 16053A   25358.98727073 -.00000003  00000+0  00000+0 0  9996", "line2": "2 41747   0.0114  13.9545 0001196 310.8440 192.8649  1.00271078 34209"}}, "geometry": {"type": "Point", "coordinates": [-113.75132249608106, -0.025556284623229956]}}, {"type": "Feature", "properties": {"norad_id": 41945, "name": "INTELSAT 32E (IS-32E)", "group": "intelsat", "lat": 0.03663432402300982, "lon": 134.59288266589596, "alt_km": 35787.807393651536, "timestamp": "2025-12-26T05:31:12.167793+00:00", "meta": {"OBJECT_NAME": "INTELSAT 32E (IS-32E)", "OBJECT_ID": "2017-007B", "EPOCH": "2025-12-25T09:26:14.207136", "MEAN_MOTION": 1.00269163, "ECCENTRICITY": 5.79e-05, "INCLINATION": 0.0256, "RA_OF_ASC_NODE": 72.3331, "ARG_OF_PERICENTER": 310.1957, "MEAN_ANOMALY": 170.0068, "EPHEMERIS_TYPE": 0, "CLASSIFICATION_TYPE": "U", "NORAD_CAT_ID": 41945, "ELEMENT_SET_NO": 999, "REV_AT_EPOCH": 3248, "BSTAR": 0, "MEAN_MOTION_DOT": -2.48e-06, "MEAN_MOTION_DDOT": 0}, "tle": {"line1": "1 41945U 17007B   25359.39321999 -.00000248  00000+0  00000+0 0  9990", "line2": "2 41945   0.0256  72.3331 0000579 310.1957 170.0068  1.00269163 32481"}}, "geometry": {"type": "Point", "coordinates": [134.59288266589596, 0.03663432402300982]}}, {"type": "Feature", "properties": {"norad_id": 42818, "name": "INTELSAT 35E (IS-35E)", "group": "intelsat", "lat": 0.03281868629218859, "lon": 143.23136524446784, "alt_km": 35792.99306224426, "timestamp": "2025-12-26T05:31:12.167804+00:00", "meta": {"OBJECT_NAME": "INTELSAT 35E (IS-35E)", "OBJECT_ID": "2017-041A", "EPOCH": "2025-12-24T19:47:02.663232", "MEAN_MOTION": 1.00269135, "ECCENTRICITY": 0.0001994, "INCLINATION": 0.0182, "RA_OF_ASC_NODE": 26.5073, "ARG_OF_PERICENTER": 252.5399, "MEAN_ANOMALY": 76.7961, "EPHEMERIS_TYPE": 0, "CLASSIFICATION_TYPE": "U", "NORAD_CAT_ID": 42818, "ELEMENT_SET_NO": 999, "REV_AT_EPOCH": 3106, "BSTAR": 0, "MEAN_MOTION_DOT": -2.17e-06, "MEAN_MOTION_DDOT": 0}, "tle": {"line1": "1 42818U 17041A   25358.82433638 -.00000217  00000+0  00000+0 0  9995", "line2": "2 42818   0.0182  26.5073 0001994 252.5399  76.7961  1.00269135 31060"}}, "geometry": {"type": "Point", "coordinates": [143.23136524446784, 0.03281868629218859]}}, {"type": "Feature", "properties": {"norad_id": 42950, "name": "INTELSAT 37E (IS-37E)", "group": "intelsat", "lat": 0.02683546344173873, "lon": 159.73614488693917, "alt_km": 35789.87673471457, "timestamp": "2025-12-26T05:31:12.167816+00:00", "meta": {"OBJECT_NAME": "INTELSAT 37E (IS-37E)", "OBJECT_ID": "2017-059A", "EPOCH": "2025-12-25T09:33:13.538304", "MEAN_MOTION": 1.00269779, "ECCENTRICITY": 0.0003163, "INCLINATION": 0.0209, "RA_OF_ASC_NODE": 25.8363, "ARG_OF_PERICENTER": 237.6739, "MEAN_ANOMALY": 315.9599, "EPHEMERIS_TYPE": 0, "CLASSIFICATION_TYPE": "U", "NORAD_CAT_ID": 42950, "ELEMENT_SET_NO": 999, "REV_AT_EPOCH": 3032, "BSTAR": 0, "MEAN_MOTION_DOT": 0, "MEAN_MOTION_DDOT": 0}, "tle": {"line1": "1 42950U 17059A   25359.39807336  .00000000  00000+0  00000+0 0  9993", "line2": "2 42950   0.0209  25.8363 0003163 237.6739 315.9599  1.00269779 30320"}}, "geometry": {"type": "Point", "coordinates": [159.73614488693917, 0.02683546344173873]}}, {"type": "Feature", "properties": {"norad_id": 43632, "name": "AZERSPACE 2 (IS-38)", "group": "intelsat", "lat": -0.017342893071798877, "lon": -137.13913852911637, "alt_km": 35782.96364415164, "timestamp": "2025-12-26T05:31:12.167827+00:00", "meta": {"OBJECT_NAME": "AZERSPACE 2 (IS-38)", "OBJECT_ID": "2018-074A", "EPOCH": "2025-12-25T14:59:23.620416", "MEAN_MOTION": 1.00271088, "ECCENTRICITY": 0.0001362, "INCLINATION": 0.0173, "RA_OF_ASC_NODE": 17.3718, "ARG_OF_PERICENTER": 261.2913, "MEAN_ANOMALY": 85.6698, "EPHEMERIS_TYPE": 0, "CLASSIFICATION_TYPE": "U", "NORAD_CAT_ID": 43632, "ELEMENT_SET_NO": 999, "REV_AT_EPOCH": 2670, "BSTAR": 0, "MEAN_MOTION_DOT": 1.58e-06, "MEAN_MOTION_DDOT": 0}, "tle": {"line1": "1 43632U 18074A   25359.62457894  .00000158  00000+0  00000+0 0  9999", "line2": "2 43632   0.0173  17.3718 0001362 261.2913  85.6698  1.00271088 26708"}}, "geometry": {"type": "Point", "coordinates": [-137.13913852911637, -0.017342893071798877]}}, {"type": "Feature", "properties": {"norad_id": 43633, "name": "HORIZONS-3E", "group": "intelsat", "lat": 0.004083181838402954, "lon": -13.247075974588236, "alt_km": 35784.34153689785, "timestamp": "2025-12-26T05:31:12.167839+00:00", "meta": {"OBJECT_NAME": "HORIZONS-3E", "OBJECT_ID": "2018-074B", "EPOCH": "2025-12-24T12:50:38.701824", "MEAN_MOTION": 1.0026891, "ECCENTRICITY": 6.503e-05, "INCLINATION": 0.0125, "RA_OF_ASC_NODE": 213.101, "ARG_OF_PERICENTER": 109.3498, "MEAN_ANOMALY": 132.5125, "EPHEMERIS_TYPE": 0, "CLASSIFICATION_TYPE": "U", "NORAD_CAT_ID": 43633, "ELEMENT_SET_NO": 999, "REV_AT_EPOCH": 2659, "BSTAR": 0, "MEAN_MOTION_DOT": 0, "MEAN_MOTION_DDOT": 0}, "tle": {"line1": "1 43633U 18074B   25358.53517016  .00000000  00000+0  00000+0 0  9998", "line2": "2 43633   0.0125 213.1010 0000650 109.3498 132.5125  1.00268910 26590"}}, "geometry": {"type": "Point", "coordinates": [-13.247075974588236, 0.004083181838402954]}}, {"type": "Feature", "properties": {"norad_id": 44333, "name": "AT&T T-16", "group": "intelsat", "lat": 0.016072971958018194, "lon": 76.90024617545228, "alt_km": 35784.94688627751, "timestamp": "2025-12-26T05:31:12.167850+00:00", "meta": {"OBJECT_NAME": "AT&T T-16", "OBJECT_ID": "2019-034A", "EPOCH": "2025-12-25T10:42:38.666304", "MEAN_MOTION": 1.00270684, "ECCENTRICITY": 7.98e-05, "INCLINATION": 0.0229, "RA_OF_ASC_NODE": 69.9127, "ARG_OF_PERICENTER": 71.5572, "MEAN_ANOMALY": 12.5365, "EPHEMERIS_TYPE": 0, "CLASSIFICATION_TYPE": "U", "NORAD_CAT_ID": 44333, "ELEMENT_SET_NO": 999, "REV_AT_EPOCH": 2389, "BSTAR": 0, "MEAN_MOTION_DOT": -9.4e-07, "MEAN_MOTION_DDOT": 0}, "tle": {"line1": "1 44333U 19034A   25359.44628086 -.00000094  00000+0  00000+0 0  9998", "line2": "2 44333   0.0229  69.9127 0000798  71.5572  12.5365  1.00270684 23899"}}, "geometry": {"type": "Point", "coordinates": [76.90024617545228, 0.016072971958018194]}}]}